K15BA7U 16.0   0.15 K151I 352.12678  192.67919  310.21268   11.85637  0.1152853  0.17651538   3.1473691    E2015-C25    14   1   21 days 0.17         MPCMEL     0000          2015 BU107         20150207
K15BA7W 16.6   0.15 K151I  14.34397  336.26830  132.05753   12.55090  0.1993709  0.22483220   2.6785333    E2015-C25    26   1   40 days 0.16         MPCMEL     0000          2015 BW107         20150207
K15BA7X 15.8   0.15 K151I  29.88223  145.17763  311.08044    7.28860  0.0857982  0.17462836   3.1700020    E2015-C25    16   1   21 days 0.21         MPCMEL     0000          2015 BX107         20150207
K15BB0A 16.9   0.15 K151I  28.34380  323.12564  129.19523   14.85422  0.1747615  0.21657037   2.7462286    E2015-C25    26   1   21 days 0.22         MPCMEL     0000          2015 BA110         20150207
K15BC2L 17.5   0.15 K151I 347.75035  145.81267  358.66394    1.93510  0.1677208  0.18869303   3.0104550    E2015-C25    20   1   21 days 0.29         MPCMEL     0000          2015 BL122         20150207
K15BC3E 15.7   0.15 K151I 189.02643  338.21143  323.58096   12.34463  0.1771091  0.21343842   2.7730284    E2015-C25    19   1   21 days 0.17         MPCMEL     0000          2015 BE123         20150207
K15BC5F 17.9   0.15 K151I 292.68825   81.27573  128.18315    6.53115  0.1273838  0.23113766   2.6295953    E2015-C25    16   1   21 days 0.17         MPCMEL     0000          2015 BF125         20150207
K15BC5P 17.4   0.15 K151I 303.65745   58.17079  129.39055    8.23814  0.0289918  0.22572467   2.6714684    E2015-C25    15   1   21 days 0.18         MPCMEL     0000          2015 BP125         20150207
K15BC5T 18.4   0.15 K151I 346.69699   17.03377  127.23583    4.15568  0.1312965  0.26268609   2.4145970    E2015-C25    15   1   21 days 0.14         MPCMEL     0000          2015 BT125         20150207
K15BC6A 16.5   0.15 K151I  68.43066  264.04798  129.04911   18.54318  0.2424634  0.18066517   3.0989870    E2015-C25    15   1   21 days 0.18         MPCMEL     0000          2015 BA126         20150207
K15BC6B 18.6   0.15 K151I 338.86043  146.51295    7.83190    1.25975  0.1338075  0.26336918   2.4104201    E2015-C25    14   1   21 days 0.28         MPCMEL     0000          2015 BB126         20150207
K15BC6D 17.6   0.15 K151I  54.36611   68.39844  330.21164    3.00616  0.3074111  0.23920960   2.5701018    E2015-C25    14   1   21 days 0.09         MPCMEL     0000          2015 BD126         20150207
K15BC6W 17.2   0.15 K151I 342.50673   45.89501  101.44362    3.30933  0.0138764  0.20232535   2.8736631    E2015-C25    13   1   21 days 0.19         MPCMEL     0000          2015 BW126         20150207
K15BC8R 17.0   0.15 K151I  62.56935  267.57923  132.93951    4.06844  0.2278332  0.21754430   2.7380261    E2015-C25    23   1   21 days 0.12         MPCMEL     0000          2015 BR128         20150207
K15BC9B 17.2   0.15 K151I  76.34078   83.16037  308.30750   11.65214  0.1861711  0.22996510   2.6385263    E2015-C25    16   1   21 days 0.12         MPCMEL     0000          2015 BB129         20150207
K15BC9T 18.4   0.15 K151I 358.15627    0.94393  129.28316    3.89866  0.1432278  0.25889745   2.4380964    E2015-C25    19   1   21 days 0.15         MPCMEL     0000          2015 BT129         20150207
K15BC9V 17.6   0.15 K151I 306.82841   55.86550  129.68269    7.46570  0.0397139  0.27267043   2.3552880    E2015-C25    22   1   21 days 0.19         MPCMEL     0000          2015 BV129         20150207
K15BD0E 17.1   0.15 K151I  55.12793  299.97494  128.46444    9.64623  0.0735395  0.17459391   3.1704190    E2015-C25    18   1   21 days 0.16         MPCMEL     0000          2015 BE130         20150207
K15BD0J 17.2   0.15 K151I  15.26794  341.45794  127.82298   13.75002  0.1465014  0.18499737   3.0504156    E2015-C25    16   1   21 days 0.18         MPCMEL     0000          2015 BJ130         20150207
K15BD0Q 16.8   0.15 K151I   3.51153  159.24365  326.38324    4.01625  0.0765728  0.20669146   2.8330508    E2015-C25    35   1   21 days 0.15         MPCMEL     0000          2015 BQ130         20150207
K15BD0S 16.8   0.15 K151I  29.30571  321.60525  127.98999   10.34868  0.1549923  0.22233324   2.6985665    E2015-C25    36   1   21 days 0.20         MPCMEL     0000          2015 BS130         20150207
K15BD0W 18.3   0.15 K151I 239.92334  131.25311  126.91581    4.38443  0.0947816  0.30085716   2.2057814    E2015-C25    16   1   21 days 0.18         MPCMEL     0000          2015 BW130         20150207
K15BD1B 17.3   0.15 K151I  22.45328  351.96485  110.56872    3.52868  0.1101008  0.18367000   3.0650947    E2015-C25    15   1   21 days 0.18         MPCMEL     0000          2015 BB131         20150207
K15BD1K 17.0   0.15 K151I 314.61265   65.07116  125.49513   11.30872  0.1628451  0.22740719   2.6582751    E2015-C25    15   1   21 days 0.07         MPCMEL     0000          2015 BK131         20150207
K15BD1V 17.0   0.15 K151I 356.65281  172.64494  322.75776    8.11824  0.0756134  0.16905930   3.2392416    E2015-C25    13   1   21 days 0.16         MPCMEL     0000          2015 BV131         20150207
K15BD2B 17.5   0.15 K151I  61.73951  305.00809  101.60608    4.48103  0.1958110  0.23421926   2.6064795    E2015-C25    16   1   21 days 0.11         MPCMEL     0000          2015 BB132         20150207
K15BD2D 17.7   0.15 K151I 328.30046   94.25863   84.37569    2.72560  0.2147467  0.18717223   3.0267399    E2015-C25    20   1   21 days 0.19         MPCMEL     0000          2015 BD132         20150207
K15BD2E 16.3   0.15 K151I 188.01576  197.94728  106.34071    5.98764  0.0527535  0.21313784   2.7756350    E2015-C25    20   1   21 days 0.11         MPCMEL     0000          2015 BE132         20150207
K15BD2G 16.8   0.15 K151I  98.41869  312.35929   74.45601    2.96822  0.0545594  0.20686871   2.8314322    E2015-C25    20   1   21 days 0.23         MPCMEL     0000          2015 BG132         20150207
K15BD2Q 18.0   0.15 K151I  45.18665  343.30787   84.34280    2.48645  0.1717322  0.27632628   2.3344680    E2015-C25    22   1   21 days 0.18         MPCMEL     0000          2015 BQ132         20150207
K15BD2W 16.7   0.15 K151I 358.92730   10.71233  122.76254   13.32341  0.1011494  0.17621665   3.1509251    E2015-C25    24   1   21 days 0.23         MPCMEL     0000          2015 BW132         20150207
K15BD2X 18.3   0.15 K151I 333.30796  190.09701  334.64970    3.61654  0.1535708  0.28824913   2.2696421    E2015-C25    14   1   21 days 0.10         MPCMEL     0000          2015 BX132         20150207
K15BD2Z 16.2   0.15 K151I 146.45941   11.83096  333.20829    7.30423  0.0207102  0.17385333   3.1794162    E2015-C25    17   1   21 days 0.10         MPCMEL     0000          2015 BZ132         20150207
K15BD3Q 17.9   0.15 K151I 307.16620  173.89252   22.60182    2.63336  0.1441976  0.25584538   2.4574479    E2015-C25    16   1   21 days 0.13         MPCMEL     0000          2015 BQ133         20150207
K15BD3S 17.2   0.15 K151I  52.05464  349.98437   79.62709    3.45869  0.0832929  0.24540148   2.5266859    E2015-C25    17   1   21 days 0.13         MPCMEL     0000          2015 BS133         20150207
K15BE0P 16.4   0.15 K151I 132.07928   21.65889  336.65348   14.42082  0.0265398  0.18933257   3.0036719    E2015-C25    21   1   21 days 0.14         MPCMEL     0000          2015 BP140         20150207
K15BE2W 17.2   0.15 K151I 110.35875  280.51643   99.44651    7.26406  0.0361998  0.21158183   2.7892266    E2015-C25    15   1   21 days 0.18         MPCMEL     0000          2015 BW142         20150207
K15BE3A 16.9   0.15 K151I  35.17099  343.76149  109.19770   10.97320  0.0924396  0.17388274   3.1790576    E2015-C25    14   1   21 days 0.14         MPCMEL     0000          2015 BA143         20150207
K15BE3D 16.5   0.15 K151I  55.74330  318.96875  110.11108   10.43493  0.0981899  0.18973434   2.9994302    E2015-C25    13   1   21 days 0.12         MPCMEL     0000          2015 BD143         20150207
K15BE3S 17.1   0.15 K151I  92.09848  339.01026   55.35943    5.20723  0.0740221  0.21193633   2.7861155    E2015-C25    19   1   21 days 0.23         MPCMEL     0000          2015 BS143         20150207
K15BE5M 17.2   0.15 K151I  44.12858   81.97651  357.04020    4.58216  0.1112381  0.19092620   2.9869345    E2015-C25    15   1   21 days 0.13         MPCMEL     0000          2015 BM145         20150207
K15BE5W 16.9   0.15 K151I  25.27802  114.74448  347.83524    6.30646  0.0985600  0.17916418   3.1162713    E2015-C25    16   1   21 days 0.12         MPCMEL     0000          2015 BW145         20150207
K15BE5Z 16.8   0.15 K151I  45.03158  325.61955  116.08667   11.37227  0.0862980  0.17677026   3.1443430    E2015-C25    16   1   21 days 0.12         MPCMEL     0000          2015 BZ145         20150207
K15BE6C 16.1   0.15 K151I 240.30163  144.22602  125.41049   14.53323  0.1750225  0.17620655   3.1510456    E2015-C25    14   1   21 days 0.14         MPCMEL     0000          2015 BC146         20150207
K15BE6F 18.3   0.15 K151I   5.06533   93.86413   28.33846    1.70891  0.1496404  0.28471243   2.2883991    E2015-C25    18   1   21 days 0.08         MPCMEL     0000          2015 BF146         20150207
K15BE6M 17.8   0.15 K151I 318.86198  146.83008   35.91326    1.71628  0.1295896  0.26721356   2.3872453    E2015-C25    13   1   21 days 0.09         MPCMEL     0000          2015 BM146         20150207
K15BE6Q 17.4   0.15 K151I  46.65429  311.10179  116.41654    8.04137  0.1718214  0.26022239   2.4298135    E2015-C25     9   1   21 days 0.08         MPCMEL     0000          2015 BQ146         20150207
K15BE7C 18.8   0.15 K151I  18.60613  354.00331  110.07347    3.76413  0.1587015  0.28133485   2.3066783    E2015-C25    18   1   21 days 0.11         MPCMEL     0000          2015 BC147         20150207
K15BE7N 18.2   0.15 K151I  72.62960  292.00669  108.35416    5.56631  0.1587637  0.29279034   2.2461128    E2015-C25    14   1   21 days 0.21         MPCMEL     0000          2015 BN147         20150207
